BEIDOU-3S IGSO-1S       
1 40549U 15019A   26167.83844597 -.00000175  00000+0  00000+0 0  9990
2 40549  49.1960 295.4654 0039047 191.2267 171.7060  1.00249739 41078
NAVSTAR 74 (USA 262)    
1 40730U 15033A   26170.21543103 -.00000046  00000+0  00000+0 0  9990
2 40730  53.9807 267.0029 0115088  30.2363 330.4646  2.00556115 80036
BEIDOU-3S M2S           
1 40748U 15037A   26168.86030058 -.00000074  00000+0  00000+0 0  9992
2 40748  54.8706 302.0235 0008383 259.0863 100.8108  1.86231904 74132
BEIDOU-3S M1S           
1 40749U 15037B   26167.45695291 -.00000070  00000+0  00000+0 0  9999
2 40749  54.8681 302.0590 0003448  61.6955 298.3263  1.86254753 74115
GSAT0205 (GALILEO 9)    
1 40889U 15045A   26144.30399159 -.00000014  00000+0  00000+0 0  9994
2 40889  54.9357 222.4171 0006405 263.0112  96.9692  1.67409242 66562
GSAT0206 (GALILEO 10)   
1 40890U 15045B   26169.04387372  .00000032  00000+0  00000+0 0  9997
2 40890  54.9444 221.5807 0001779 334.3054  25.7732  1.70473811 67050
BEIDOU-3S IGSO-2S       
1 40938U 15053A   26170.58180501 -.00000142  00000+0  00000+0 0  9998
2 40938  49.2167 258.7534 0065636 192.2755 121.2664  1.00258860 39370
NAVSTAR 75 (USA 265)    
1 41019U 15062A   26170.27143581 -.00000088  00000+0  00000+0 0  9991
2 41019  56.9608  30.7307 0111996 231.0798 127.9655  2.00566982 77870
GSAT-15                 
1 41028U 15065A   26170.34115693 -.00000264  00000+0  00000+0 0  9991
2 41028   0.0641 264.4703 0004352 165.6919  53.7331  1.00272847 38829
GSAT0209 (GALILEO 12)   
1 41174U 15079A   26169.21194997 -.00000011  00000+0  00000+0 0  9996
2 41174  55.8280 101.2339 0005250 345.1239  14.8344  1.70473656 64794
GSAT0208 (GALILEO 11)   
1 41175U 15079B   26167.08588476 -.00000013  00000+0  00000+0 0  9991
2 41175  55.8253 101.2890 0004864 343.1626  16.7832  1.70473579 65175
IRNSS-1E                
1 41241U 16003A   26169.73041566 -.00000318  00000+0  00000+0 0  9999
2 41241  33.2372  59.7280 0018940 178.9729  42.9724  1.00277463 38098
NAVSTAR 76 (USA 266)    
1 41328U 16007A   26164.87780105 -.00000028  00000+0  00000+0 0  9996
2 41328  55.5220  89.5909 0096120 247.4205 111.5460  2.00551861 75773
COSMOS 2514 [GLONASS-M] 
1 41330U 16008A   26169.69294475 -.00000056  00000+0  00000+0 0  9996
2 41330  65.0207 312.9548 0011343 198.1525 161.7970  2.13102579 80658
BEIDOU-2 IGSO-6         
1 41434U 16021A   26167.12386227 -.00000150  00000+0  00000+0 0  9994
2 41434  60.2243  38.0497 0057184 231.4868 132.3999  1.00259474 37472
IRNSS-1G                
1 41469U 16027A   26169.68898810 -.00000343  00000+0  00000+0 0  9991
2 41469   5.2016  97.4387 0007548 355.5290 191.4476  1.00265368 37194
GSAT0211 (GALILEO 14)   
1 41549U 16030A   26169.55617319  .00000029  00000+0  00000+0 0  9993
2 41549  55.0948 221.6573 0002964 322.3705  37.6930  1.70473904 62691
GSAT0210 (GALILEO 13)   
1 41550U 16030B   26169.22686126  .00000031  00000+0  00000+0 0  9994
2 41550  55.0944 221.6643 0005022 247.0655 112.9679  1.70473788 62688
BEIDOU-2 G7             
1 41586U 16037A   26170.64607029 -.00000360  00000+0  00000+0 0  9999
2 41586   1.7270  69.3491 0006447 357.9358 183.6597  1.00275243  6915
EUTELSAT 117 WEST B     
1 41589U 16038B   26169.94300566 -.00000018  00000+0  00000+0 0  9990
2 41589   0.0100 153.3935 0000602 317.0300  19.2461  1.00271826 36684
GSAT0207 (GALILEO 15)   
1 41859U 16069A   26169.50518031 -.00000012  00000+0  00000+0 0  9998
2 41859  55.4996 101.0498 0005236 330.7132  29.2328  1.70473586 59422
GSAT0212 (GALILEO 16)   
1 41860U 16069B   26169.94520460 -.00000012  00000+0  00000+0 0  9997
2 41860  55.4975 101.0327 0004607   1.4092 358.5693  1.70473680 59686
GSAT0213 (GALILEO 17)   
1 41861U 16069C   26169.13924815 -.00000012  00000+0  00000+0 0  9991
2 41861  55.4992 101.0629 0004872 313.2322  46.7007  1.70474148 59534
GSAT0214 (GALILEO 18)   
1 41862U 16069D   26169.87201710 -.00000012  00000+0  00000+0 0  9995
2 41862  55.4996 101.0352 0004721 311.5610  48.3755  1.70473520 59672
SES-15                  
1 42709U 17026A   26170.01193634  .00000054  00000+0  00000+0 0  9998
2 42709   0.0188 342.0645 0000417  67.4036  92.8830  1.00268635  7450
QZS-2 (MICHIBIKI-2)     
1 42738U 17028A   26170.47837747 -.00000184  00000+0  00000+0 0  9997
2 42738  39.4240 243.1214 0758837 269.2922  69.3071  1.00283355  7645
QZS-3 (MICHIBIKI-3)     
1 42917U 17048A   26170.60103922 -.00000354  00000+0  00000+0 0  9993
2 42917   0.0626 165.8124 0001965 277.9302 167.4533  1.00275041 32281
COSMOS 2522 [GLONASS-M] 
1 42939U 17055A   26169.06146248  .00000058  00000+0  00000+0 0  9991
2 42939  64.0788 191.8550 0011120 242.4701 117.4658  2.13102224 67996
QZS-4 (MICHIBIKI-4)     
1 42965U 17062A   26169.35012919 -.00000360  00000+0  00000+0 0  9994
2 42965  40.1070 343.4662 0745019 271.8091 274.2172  1.00250086 31812
BEIDOU-3 M1             
1 43001U 17069A   26168.13305361 -.00000051  00000+0  00000+0 0  9991
2 43001  56.6923  63.0864 0010443 325.9765  33.9976  1.86230842 58607
BEIDOU-3 M2             
1 43002U 17069B   26169.14571928 -.00000054  00000+0  00000+0 0  9991
2 43002  56.6917  63.0896 0009148 351.9570   8.0704  1.86230577 58617
